[{"OBJECT_NAME":"STARLINK-30940","OBJECT_ID":"2023-180H","EPOCH":"2026-03-09T20:01:05.080512","MEAN_MOTION":15.27570165,"ECCENTRICITY":0.00022806,"INCLINATION":43.0025,"RA_OF_ASC_NODE":266.649,"ARG_OF_PERICENTER":277.2266,"MEAN_ANOMALY":82.8327,"EPHEMERIS_TYPE":0,"CLASSIFICATION_TYPE":"U","NORAD_CAT_ID":58409,"ELEMENT_SET_NO":999,"REV_AT_EPOCH":12935,"BSTAR":-9.0927856e-5,"MEAN_MOTION_DOT":-2.763e-5,"MEAN_MOTION_DDOT":0},{"OBJECT_NAME":"FLOCK 4G-22","OBJECT_ID":"2025-009AN","EPOCH":"2026-03-09T22:51:40.689792","MEAN_MOTION":15.2720903,"ECCENTRICITY":8.959e-5,"INCLINATION":97.4046,"RA_OF_ASC_NODE":151.5884,"ARG_OF_PERICENTER":284.1963,"MEAN_ANOMALY":75.9176,"EPHEMERIS_TYPE":0,"CLASSIFICATION_TYPE":"U","NORAD_CAT_ID":62645,"ELEMENT_SET_NO":999,"REV_AT_EPOCH":6376,"BSTAR":0.00049035383,"MEAN_MOTION_DOT":0.00013013,"MEAN_MOTION_DDOT":0}]
